ASTROCAST-0403          
1 55111U 23001DG  26068.82333059  .00013959  00000+0  51317-3 0  9990
2 55111  97.5604 161.3228 0004771 338.0704  22.0330 15.28004949129377
STARLINK-35366          
1 66512U 25263AD  26068.13635428  .00028456  00000+0  10386-2 0  9996
2 66512  43.0014 353.8669 0007220 234.1942 125.8239 15.27591667 18817
